OBJECT_NAME,OBJECT_ID,EPOCH,MEAN_MOTION,ECCENTRICITY,INCLINATION,RA_OF_ASC_NODE,ARG_OF_PERICENTER,MEAN_ANOMALY,EPHEMERIS_TYPE,CLASSIFICATION_TYPE,NORAD_CAT_ID,ELEMENT_SET_NO,REV_AT_EPOCH,BSTAR,MEAN_MOTION_DOT,MEAN_MOTION_DDOT
CYGFM02,2016-078C,2026-06-19T12:16:47.048160,15.64626531,.00079925,34.9391,207.2365,217.1702,142.8472,0,U,41886,999,52953,.27849932E-3,.27984E-3,0
CYGFM01,2016-078D,2026-06-19T12:57:25.814304,15.57439583,.00069882,34.9390,246.0480,168.3107,191.7780,0,U,41887,999,52907,.26333301E-3,.19995E-3,0
CYGFM08,2016-078E,2026-06-19T13:25:24.365856,15.60122432,.0008618,34.9419,225.4354,199.4755,160.5642,0,U,41888,999,52934,.26756136E-3,.22522E-3,0
CYGFM07,2016-078G,2026-06-19T12:26:21.522624,15.60217463,.00073941,34.9433,214.0474,215.1279,144.8959,0,U,41890,999,52936,.2602243E-3,.21971E-3,0
CYGFM03,2016-078H,2026-06-19T11:44:37.411296,15.60210432,.00067942,34.9389,216.1772,203.2035,156.8384,0,U,41891,999,52933,.25627014E-3,.21626E-3,0
ECHOSTAR 19,2016-079A,2026-06-19T15:50:12.367104,1.00272045,.0001253,0.0184,18.1120,75.7807,314.4383,0,U,41893,999,3472,0,-.144E-5,0
ARASE (ERG),2016-080A,2026-06-19T16:13:05.316672,2.57711803,.6989682,31.9588,7.3249,48.9482,353.2525,0,U,41896,999,8834,.13898E-2,.485E-5,0
TANSAT,2016-081A,2026-06-19T20:28:05.552256,14.59952171,.0019418,98.5363,171.1895,303.6215,56.3131,0,U,41898,999,50501,.26388E-4,.76E-6,0
YIJIAN,2016-081B,2026-06-18T23:29:32.613216,14.60768423,.00198016,98.5374,167.9327,305.6545,54.2811,0,U,41899,999,50485,.10278487E-3,.452E-5,0
SPARK 1,2016-081C,2026-06-19T11:24:26.232768,14.59792072,.00227704,98.5485,165.0258,315.3940,44.5426,0,U,41900,999,50460,.96594235E-4,.412E-5,0
SPARK 2,2016-081D,2026-06-19T04:34:56.898048,14.59166700,.00244991,98.5489,160.0229,320.6335,39.3082,0,U,41901,999,50441,.93207823E-4,.39E-5,0
JCSAT-110A (JCSAT-15),2016-082A,2026-06-19T20:56:08.156832,1.00269811,.0000522,0.0185,12.3832,86.1145,233.6809,0,U,41903,999,3478,0,-.356E-5,0
STAR ONE D1,2016-082B,2026-06-19T12:28:39.536256,1.00270128,.00022297,0.0159,16.8181,91.3553,262.7280,0,U,41904,999,3479,0,-.217E-5,0
TJS-2,2017-001A,2026-06-19T19:24:17.645184,1.00270315,.0000402,0.8411,85.2923,56.3108,124.0419,0,U,41911,999,3474,0,-.12E-6,0
JILIN-1 03,2017-002B,2026-06-19T19:36:27.562752,15.41629737,.0007078,97.1949,177.8643,146.7588,213.4105,0,U,41914,999,52226,.26146E-3,.10937E-3,0
IRIDIUM 106,2017-003A,2026-06-19T17:55:14.175840,14.34218115,.0001891,86.3961,87.4864,87.8593,272.2819,0,U,41917,999,49357,.20976E-4,.79E-6,0
IRIDIUM 103,2017-003B,2026-06-19T17:36:58.287744,14.34217823,.000227,86.3962,87.3915,77.4447,282.7003,0,U,41918,999,49359,.12916E-4,.56E-6,0
IRIDIUM 109,2017-003C,2026-06-19T17:46:06.247776,14.34218218,.0002282,86.3963,87.4484,82.9056,277.2399,0,U,41919,999,49356,.2483E-4,.89E-6,0
IRIDIUM 102,2017-003D,2026-06-19T17:00:25.725312,14.34220370,.000224,86.3962,87.3851,86.3478,273.7974,0,U,41920,999,49364,.69556E-4,.215E-5,0
IRIDIUM 105,2017-003E,2026-06-19T17:41:17.276064,14.34217118,.0002519,86.3963,55.8042,82.3225,277.8256,0,U,41921,999,49550,.53465E-4,.17E-5,0
IRIDIUM 104,2017-003F,2026-06-19T17:18:42.295968,14.34217875,.0002419,86.3962,87.4225,79.8117,280.3351,0,U,41922,999,49363,.1125E-4,.51E-6,0
IRIDIUM 114,2017-003G,2026-06-19T17:27:50.268096,14.34217779,.0002302,86.3963,87.4030,80.6526,279.4930,0,U,41923,999,49361,.52058E-5,.34E-6,0
IRIDIUM 108,2017-003H,2026-06-19T16:28:05.835360,14.34220538,.000225,86.3956,55.7154,86.4882,273.6571,0,U,41924,999,49546,.60295E-4,.189E-5,0
IRIDIUM 112,2017-003J,2026-06-19T12:08:10.241376,14.34218195,.00023493,86.3956,87.3377,84.4011,275.7453,0,U,41925,999,49360,.6985759E-5,.39E-6,0
IRIDIUM 111,2017-003K,2026-06-19T16:51:18.940320,14.34218875,.0002246,86.3960,87.3261,83.1492,276.9959,0,U,41926,999,49361,.68299E-4,.211E-5,0
SBIRS GEO-4 (USA 273),2017-004A,2026-06-19T20:12:38.610720,1.00271960,.0002039,2.2490,43.3718,36.3457,152.3974,0,U,41937,999,3462,0,.117E-5,0
HISPASAT 36W-1,2017-006A,2026-06-19T04:08:58.135776,1.00280304,.00015174,0.0158,176.4567,251.7801,225.4062,0,U,41942,999,3426,0,-.25E-5,0
TELKOM 3S,2017-007A,2026-06-19T04:32:38.798880,1.00267211,.0002259,0.0158,355.6089,90.4220,7.5579,0,U,41944,999,3416,0,0,0
INTELSAT 32E (IS-32E),2017-007B,2026-06-19T04:06:58.326624,1.00270576,.00006553,0.0180,10.1464,310.2644,325.5432,0,U,41945,999,3424,0,-.275E-5,0
CARTOSAT-2D,2017-008A,2026-06-19T20:36:50.103072,15.19217380,.0003977,97.4097,230.1156,223.3930,136.6992,0,U,41948,999,51798,.44624E-4,.872E-5,0
SENTINEL-2B,2017-013A,2026-06-19T20:45:21.724128,14.30817452,.0001177,98.5689,245.6017,86.7392,273.3925,0,U,42063,999,48502,.10695E-4,-.16E-6,0
ECHOSTAR 23,2017-014A,2026-06-19T14:52:15.198240,1.00269079,.0002153,0.0180,6.0806,78.5350,296.3875,0,U,42070,999,3394,0,-.63E-6,0
WGS F9 (USA 275),2017-016A,2026-06-19T20:28:38.571744,1.00270351,.0000369,0.0190,354.2291,314.4939,254.5056,0,U,42075,999,3392,0,0,0
SES-10,2017-017A,2026-06-19T05:34:23.395008,1.00271650,.0002656,0.0225,41.2107,55.0874,187.8610,0,U,42432,999,3377,0,-.279E-5,0
CHINASAT 16 (SJ-13),2017-018A,2026-06-19T01:25:30.429408,1.00265993,.00041371,0.1014,90.1338,141.2871,167.7292,0,U,42662,999,3376,0,-.358E-5,0
KOREASAT 7,2017-023A,2026-06-19T18:33:33.603840,1.00273934,.0000755,0.0211,341.7892,67.6219,252.8653,0,U,42691,999,3339,0,-.367E-5,0
SGDC,2017-023B,2026-06-19T11:08:46.618080,1.00269796,.00026392,0.0152,356.9206,98.4468,264.6503,0,U,42692,999,3342,0,-.255E-5,0
GSAT-9,2017-024A,2026-06-19T19:36:05.013216,1.00268173,.0002537,0.0134,63.0494,21.7206,214.5940,0,U,42695,999,3332,0,-.291E-5,0
INMARSAT 5-F4,2017-025A,2026-06-18T11:28:45.069024,1.00273392,.0000618,0.0173,18.0434,337.7045,139.6424,0,U,42698,999,3329,0,.69E-6,0
SES-15,2017-026A,2026-06-19T00:17:11.299776,1.00268635,.00004177,0.0188,342.0645,67.4036,92.8830,0,U,42709,999,745,0,.54E-6,0
COSMOS 2518,2017-027A,2026-06-18T14:07:11.193600,2.00826700,.69721706,63.0418,248.2258,273.6932,15.9874,0,U,42719,999,6643,0,-.915E-5,0
QZS-2 (MICHIBIKI-2),2017-028A,2026-06-19T11:28:51.813408,1.00283355,.0758837,39.4240,243.1214,269.2922,69.3071,0,U,42738,999,764,0,-.184E-5,0
VIASAT-2,2017-029A,2026-06-19T17:40:30.161280,1.00271821,.0000257,0.0158,301.1426,74.6564,87.3901,0,U,42740,999,3323,0,-.271E-5,0
EUTELSAT 172B,2017-029B,2026-06-19T18:49:39.561024,1.00270741,.0000033,0.0341,141.3451,72.3730,148.7154,0,U,42741,999,3376,0,-.11E-6,0
GSAT-19,2017-031A,2026-06-19T18:14:10.810176,1.00271028,.0007032,0.0319,264.8417,166.2840,158.2777,0,U,42747,999,3317,0,.12E-5,0
ECHOSTAR 21,2017-032A,2026-06-19T20:12:38.610720,1.00271099,.000219,1.7707,355.9293,94.7100,130.8412,0,U,42749,999,3312,0,.59E-6,0
HXMT (HUIYAN),2017-034A,2026-06-19T19:57:00.514080,15.18489449,.0030937,43.0125,168.3175,164.2204,195.9615,0,U,42758,999,49806,.11746E-3,.2249E-4,0
CARTOSAT-2E,2017-036C,2026-06-19T19:27:34.559424,15.19269934,.0002225,97.4267,230.5703,307.5148,52.5884,0,U,42767,999,49854,.13904E-3,.2864E-4,0
BULGARIASAT-1,2017-038A,2026-06-19T18:49:38.806752,1.00270624,.0003134,0.0119,51.4195,49.0961,91.7894,0,U,42801,999,3287,0,.5E-7,0
IRIDIUM 113,2017-039A,2026-06-19T19:43:23.200320,14.34217745,.0002277,86.3972,321.0770,89.3048,270.8408,0,U,42803,999,47156,.52369E-5,.34E-6,0
IRIDIUM 123,2017-039B,2026-06-19T14:01:14.873088,14.34217613,.00019837,86.3972,352.6349,87.2792,272.8631,0,U,42804,999,47029,-.1798675E-5,.15E-6,0
IRIDIUM 120,2017-039C,2026-06-19T09:31:27.245568,14.34217362,.00020488,86.3961,321.0368,96.2017,263.9413,0,U,42805,999,47149,.64983121E-4,.202E-5,0
IRIDIUM 115,2017-039D,2026-06-19T11:25:10.972416,14.43277327,.00020063,86.4498,321.1328,91.9439,268.1992,0,U,42806,999,47459,.78595873E-4,.285E-5,0
IRIDIUM 118,2017-039E,2026-06-19T11:25:58.848384,14.34217439,.00022013,86.3972,352.6781,89.0082,271.1366,0,U,42807,999,47027,.46787755E-4,.151E-5,0
IRIDIUM 117,2017-039F,2026-06-19T13:33:50.898816,14.34217588,.00020016,86.3966,352.5986,87.5235,272.6190,0,U,42808,999,47031,-.2890723E-5,.12E-6,0
IRIDIUM 126,2017-039G,2026-06-19T12:29:54.730176,14.34217505,.00022015,86.3972,352.6681,87.2654,272.8794,0,U,42809,999,47028,.33434188E-4,.113E-5,0
IRIDIUM 124,2017-039H,2026-06-19T16:29:13.712064,14.43279358,.0002196,86.4485,289.3133,94.0787,266.0665,0,U,42810,999,47547,.75873E-4,.275E-5,0
IRIDIUM 128,2017-039J,2026-06-19T15:37:30.688032,14.34217500,.000191,86.3962,24.1200,89.3330,270.8085,0,U,42811,999,47033,-.65295E-5,.1E-7,0
IRIDIUM 121,2017-039K,2026-06-19T06:15:26.913888,14.34217545,.00021598,86.3971,352.8046,91.9328,268.2115,0,U,42812,999,47012,.22119063E-4,.82E-6,0
HELLAS-SAT 3,2017-040A,2026-06-19T18:11:41.047872,1.00272803,.0004743,0.0546,50.9629,4.4131,164.5051,0,U,42814,999,3283,0,.147E-5,0
GSAT-17,2017-040B,2026-06-19T08:11:15.958752,1.00270108,.00019492,0.0164,31.5537,275.1125,177.1938,0,U,42815,999,3281,0,-.263E-5,0
INTELSAT 35E (IS-35E),2017-041A,2026-06-19T04:09:28.088064,1.00270762,.00020387,0.0194,13.3558,75.0828,206.8380,0,U,42818,999,3283,0,0,0
KANOPUS-V-IK,2017-042A,2026-06-19T20:29:34.635840,15.22985998,.0001703,97.3578,76.3253,85.3445,274.7986,0,U,42825,999,49577,.77412E-4,.175E-4,0
NORSAT 1,2017-042B,2026-06-19T09:18:15.799104,15.14103895,.00084538,97.4452,338.0539,79.4348,280.7835,0,U,42826,999,48756,.28694409E-3,.5164E-4,0
NORSAT 2,2017-042D,2026-06-19T04:44:09.794112,15.21959153,.00103327,97.4042,343.6054,51.0639,309.1517,0,U,42828,999,48804,.3447389E-3,.7805E-4,0
TECHNOSAT,2017-042E,2026-06-19T09:02:44.201472,15.04974319,.00191123,97.4295,327.9510,87.3481,272.9933,0,U,42829,999,48703,.20743883E-3,.2893E-4,0
FLYING LAPTOP,2017-042G,2026-06-19T20:26:37.189248,15.01160999,.0019679,97.4702,326.2820,113.0315,247.2988,0,U,42831,999,48685,.23569E-3,.2975E-4,0
WNISAT 1R,2017-042L,2026-06-19T10:10:31.071072,15.01770504,.00113526,97.4836,326.4663,140.3457,219.8600,0,U,42835,999,48684,.13748499E-3,.1735E-4,0
LEMUR-2-GREENBERG,2017-042N,2026-06-19T07:24:32.652864,15.31382691,.0008279,97.3823,350.9230,6.1746,353.9596,0,U,42837,999,48871,.47643551E-3,.14389E-3,0
